SAR-LUPE 2              
1 31797U 07030A   26166.28081015  .00032799  00000+0  59344-3 0  9990
2 31797  98.1043 270.4769 0006222 140.1835 219.9872 15.49597175 56645
SAPPHIRE                
1 39088U 13009C   26166.27955614  .00000087  00000+0  45238-4 0  9991
2 39088  98.4259 345.7807 0010031 252.9584 107.0503 14.35240051696306
PRAETORIAN SDA_602      
1 65565U 25203A   26166.28941089  .00000055  00000+0  38354-4 0  9997
2 65565  81.3032  12.5268 0005669 189.2430 170.8624 13.84342565 38430
PRAETORIAN SDA_603      
1 65566U 25203B   26166.09860237  .00000198  00000+0  16778-3 0  9995
2 65566  81.3034  12.6188 0009269 193.4914 166.5996 13.83905275 38413
PRAETORIAN SDA_604      
1 65567U 25203C   26166.04468136  .00000056  00000+0  40431-4 0  9990
2 65567  81.3054  13.0777 0005149 197.7035 162.3942 13.83047247 38386
PRAETORIAN SDA_605      
1 65568U 25203D   26166.08293577  .00000046  00000+0  31021-4 0  9994
2 65568  81.3019  12.7074 0007962 188.8567 171.2450 13.83433992 38402
PRAETORIAN SDA_606      
1 65569U 25203E   26166.06544199  .00000063  00000+0  46305-4 0  9992
2 65569  81.3055  12.9444 0005603 186.8599 173.2481 13.83407170 38392
PRAETORIAN SDA_607      
1 65570U 25203F   26166.29165609  .00000184  00000+0  15398-3 0  9995
2 65570  81.3040  12.4017 0008586 192.4531 167.6415 13.84283971 38443
PRAETORIAN SDA_608      
1 65571U 25203G   26166.05150450  .00000053  00000+0  36820-4 0  9997
2 65571  81.3007  12.7848 0005666 196.7984 163.2986 13.83816576 38398
PRAETORIAN SDA_609      
1 65572U 25203H   26166.05702039  .00000138  00000+0  11345-3 0  9992
2 65572  81.3052  12.7631 0006556 190.8268 169.2749 13.84211201 38408
PRAETORIAN SDA_610      
1 65573U 25203J   26165.95901227  .00000048  00000+0  32300-4 0  9996
2 65573  81.3008  12.8285 0006321 194.6772 165.4202 13.83851662 38387
PRAETORIAN SDA_611      
1 65574U 25203K   26166.10357927  .00000137  00000+0  11413-3 0  9997
2 65574  81.3007  12.8587 0005238 201.0221 159.0720 13.83309458 38396
PRAETORIAN SDA_612      
1 65575U 25203L   26166.02355435  .00000171  00000+0  14049-3 0  9997
2 65575  81.3029  12.5242 0008990 192.9177 167.1752 13.85038800 38412
PRAETORIAN SDA_613      
1 65576U 25203M   26166.10950630  .00000046  00000+0  31735-4 0  9998
2 65576  81.2999  12.8485 0005444 189.6693 170.4359 13.82764825 38394
PRAETORIAN SDA_614      
1 65577U 25203N   26166.08457540  .00000032  00000+0  17597-4 0  9993
2 65577  81.3014  12.5450 0006878 189.5799 170.5228 13.84777874 38421
PRAETORIAN SDA_615      
1 65578U 25203P   26166.06094397  .00000168  00000+0  13974-3 0  9993
2 65578  81.3022  12.5294 0008782 191.2544 168.8418 13.84436027 38413
PRAETORIAN SDA_616      
1 65579U 25203Q   26166.10273095  .00000163  00000+0  13813-3 0  9990
2 65579  81.3063  13.0031 0005155 198.3161 161.7810 13.83267747 38393
PRAETORIAN SDA_617      
1 65580U 25203R   26166.19649526  .00000012  00000+0 -21043-6 0  9998
2 65580  81.3030  12.7478 0007169 189.9473 170.1542 13.83149798 38413
PRAETORIAN SDA_618      
1 65581U 25203S   26166.09961142  .00000189  00000+0  15767-3 0  9996
2 65581  81.3021  12.4238 0009515 193.4866 166.6038 13.84669211 38427
PRAETORIAN SDA_619      
1 65582U 25203T   26166.06195314  .00000127  00000+0  10357-3 0  9996
2 65582  81.3044  12.7527 0007917 191.6136 168.4840 13.83805723 39039
PRAETORIAN SDA_620      
1 65583U 25203U   26166.08965480  .00000111  00000+0  89551-4 0  9994
2 65583  81.3030  12.7478 0007458 186.5736 173.5324 13.83617824 38406
PRAETORIAN SDA_621      
1 65584U 25203V   26166.06371908  .00000047  00000+0  31910-4 0  9993
2 65584  81.3021  12.6903 0007239 184.4825 175.6268 13.83800959 38405
PRAETORIAN SDA_601      
1 65585U 25203W   26166.10571558  .00000170  00000+0  14424-3 0  9999
2 65585  81.3036  12.9455 0005158 201.7680 158.3258 13.83167575 38392
